start=new Date('2023-05-23T00:00:00.000Z').valueOf();
sats=[{"PERIOD":"95.594","OBJECT_ID":"2021-036BH","RA_OF_ASC_NODE":"11.1308","EPHEMERIS_TYPE":"0","SEMIMAJOR_AXIS":"6925.441","REF_FRAME":"TEME","MEAN_ELEMENT_THEORY":"SGP4","COUNTRY_CODE":"US","MEAN_MOTION_DOT":"0.00031383","OBJECT_TYPE":"PAYLOAD","CLASSIFICATION_TYPE":"U","ARG_OF_PERICENTER":"118.8275","SITE":"AFETR","GP_ID":"232324073","RCS_SIZE":"LARGE","MEAN_ANOMALY":"241.2822","MEAN_MOTION_DDOT":"0.0000000000000","OBJECT_NAME":"STARLINK-2514","ECCENTRICITY":"0.00010690","CENTER_NAME":"EARTH","PERIAPSIS":"546.566","MEAN_MOTION":"15.06369754","TLE_LINE1":"1 48331U 21036BH  23142.33830500  .00031383  00000-0  21181-2 0  9998","TLE_LINE2":"2 48331  53.0543  11.1308 0001069 118.8275 241.2822 15.06369754113948","NORAD_CAT_ID":"48331","INCLINATION":"53.0543","LAUNCH_DATE":"2021-04-29","ELEMENT_SET_NO":"999","APOAPSIS":"548.047","DECAY_DATE":null,"REV_AT_EPOCH":"11394","FILE":"3914693","EPOCH":"2023-05-22T08:07:09.552000","TIME_SYSTEM":"UTC","BSTAR":"0.00211810000000"},{"ELEMENT_SET_NO":"999","LAUNCH_DATE":"2021-04-29","APOAPSIS":"547.981","DECAY_DATE":null,"NORAD_CAT_ID":"48332","INCLINATION":"53.0548","TLE_LINE2":"2 48332  53.0548   9.3514 0001001 136.2290 223.8779 15.06375719114002","TLE_LINE1":"1 48332U 21036BJ  23142.73544240  .00018411  00000-0  12525-2 0  9995","TIME_SYSTEM":"UTC","BSTAR":"0.00125250000000","FILE":"3914964","REV_AT_EPOCH":"11400","EPOCH":"2023-05-22T17:39:02.223360","REF_FRAME":"TEME","COUNTRY_CODE":"US","MEAN_MOTION_DOT":"0.00018411","OBJECT_TYPE":"PAYLOAD","CLASSIFICATION_TYPE":"U","MEAN_ELEMENT_THEORY":"SGP4","RA_OF_ASC_NODE":"9.3514","OBJECT_ID":"2021-036BJ","PERIOD":"95.594","SEMIMAJOR_AXIS":"6925.423","EPHEMERIS_TYPE":"0","ECCENTRICITY":"0.00010010","PERIAPSIS":"546.595","MEAN_MOTION":"15.06375719","CENTER_NAME":"EARTH","SITE":"AFETR","ARG_OF_PERICENTER":"136.2290","MEAN_ANOMALY":"223.8779","RCS_SIZE":"LARGE","OBJECT_NAME":"STARLINK-2511","MEAN_MOTION_DDOT":"0.0000000000000","GP_ID":"232357582"},{"SITE":"AFETR","ARG_OF_PERICENTER":"124.8331","MEAN_ANOMALY":"235.2776","RCS_SIZE":"LARGE","MEAN_MOTION_DDOT":"0.0000000000000","OBJECT_NAME":"STARLINK-2518","GP_ID":"232330050","ECCENTRICITY":"0.00012550","PERIAPSIS":"546.433","MEAN_MOTION":"15.06370950","CENTER_NAME":"EARTH","OBJECT_ID":"2021-036BK","RA_OF_ASC_NODE":"11.1645","PERIOD":"95.594","SEMIMAJOR_AXIS":"6925.438","EPHEMERIS_TYPE":"0","REF_FRAME":"TEME","MEAN_MOTION_DOT":"0.00018315","COUNTRY_CODE":"US","CLASSIFICATION_TYPE":"U","OBJECT_TYPE":"PAYLOAD","MEAN_ELEMENT_THEORY":"SGP4","FILE":"3914736","REV_AT_EPOCH":"11453","EPOCH":"2023-05-22T07:56:32.217216","TIME_SYSTEM":"UTC","BSTAR":"0.00124620000000","NORAD_CAT_ID":"48333","INCLINATION":"53.0546","TLE_LINE2":"2 48333  53.0546  11.1645 0001255 124.8331 235.2776 15.06370950114531","TLE_LINE1":"1 48333U 21036BK  23142.33092844  .00018315  00000-0  12462-2 0  9993","ELEMENT_SET_NO":"999","LAUNCH_DATE":"2021-04-29","APOAPSIS":"548.172","DECAY_DATE":null},{"EPHEMERIS_TYPE":"0","SEMIMAJOR_AXIS":"6925.436","PERIOD":"95.594","RA_OF_ASC_NODE":"9.3979","OBJECT_ID":"2021-036BL","MEAN_ELEMENT_THEORY":"SGP4","OBJECT_TYPE":"PAYLOAD","CLASSIFICATION_TYPE":"U","COUNTRY_CODE":"US","MEAN_MOTION_DOT":"0.00015500","REF_FRAME":"TEME","GP_ID":"232357095","MEAN_MOTION_DDOT":"0.0000000000000","OBJECT_NAME":"STARLINK-2470","MEAN_ANOMALY":"302.7580","RCS_SIZE":"LARGE","ARG_OF_PERICENTER":"57.3523","SITE":"AFETR","CENTER_NAME":"EARTH","MEAN_MOTION":"15.06371368","PERIAPSIS":"546.485","ECCENTRICITY":"0.00011780","TLE_LINE2":"2 48334  53.0543   9.3979 0001178  57.3523 302.7580 15.06371368114004","TLE_LINE1":"1 48334U 21036BL  23142.72533698  .00015500  00000-0  10580-2 0  9996","INCLINATION":"53.0543","NORAD_CAT_ID":"48334","DECAY_DATE":null,"APOAPSIS":"548.117","LAUNCH_DATE":"2021-04-29","ELEMENT_SET_NO":"999","EPOCH":"2023-05-22T17:24:29.115072","REV_AT_EPOCH":"11400","FILE":"3914964","BSTAR":"0.00105800000000","TIME_SYSTEM":"UTC"},{"RA_OF_ASC_NODE":"9.1122","OBJECT_ID":"2021-036BM","PERIOD":"95.593","SEMIMAJOR_AXIS":"6925.399","EPHEMERIS_TYPE":"0","REF_FRAME":"TEME","OBJECT_TYPE":"PAYLOAD","CLASSIFICATION_TYPE":"U","MEAN_MOTION_DOT":"0.00023644","COUNTRY_CODE":"US","MEAN_ELEMENT_THEORY":"SGP4","SITE":"AFETR","ARG_OF_PERICENTER":"56.4215","OBJECT_NAME":"STARLINK-2441","MEAN_MOTION_DDOT":"0.0000000000000","MEAN_ANOMALY":"303.6897","RCS_SIZE":"LARGE","GP_ID":"232357346","ECCENTRICITY":"0.00012970","MEAN_MOTION":"15.06383661","PERIAPSIS":"546.365","CENTER_NAME":"EARTH","INCLINATION":"53.0556","NORAD_CAT_ID":"48335","TLE_LINE2":"2 48335  53.0556   9.1122 0001297  56.4215 303.6897 15.06383661114018","TLE_LINE1":"1 48335U 21036BM  23142.78799906  .00023644  00000-0  16016-2 0  9997","ELEMENT_SET_NO":"999","LAUNCH_DATE":"2021-04-29","DECAY_DATE":null,"APOAPSIS":"548.162","FILE":"3914964","REV_AT_EPOCH":"11401","EPOCH":"2023-05-22T18:54:43.118784","BSTAR":"0.00160160000000","TIME_SYSTEM":"UTC"},{"TIME_SYSTEM":"UTC","BSTAR":"0.00174290000000","EPOCH":"2023-05-22T17:27:06.620544","FILE":"3914964","REV_AT_EPOCH":"11299","APOAPSIS":"547.799","DECAY_DATE":null,"ELEMENT_SET_NO":"999","LAUNCH_DATE":"2021-05-04","NORAD_CAT_ID":"48353","INCLINATION":"53.0540","TLE_LINE1":"1 48353U 21038A   23142.72715996  .00025787  00000-0  17429-2 0  9999","TLE_LINE2":"2 48353  53.0540 269.3864 0000923  95.5781 264.5313 15.06417666112997","PERIAPSIS":"546.520","MEAN_MOTION":"15.06417666","CENTER_NAME":"EARTH","ECCENTRICITY":"0.00009230","RCS_SIZE":"LARGE","MEAN_ANOMALY":"264.5313","OBJECT_NAME":"STARLINK-2613","MEAN_MOTION_DDOT":"0.0000000000000","GP_ID":"232357584","SITE":"AFETR","ARG_OF_PERICENTER":"95.5781","COUNTRY_CODE":"US","MEAN_MOTION_DOT":"0.00025787","CLASSIFICATION_TYPE":"U","OBJECT_TYPE":"PAYLOAD","MEAN_ELEMENT_THEORY":"SGP4","REF_FRAME":"TEME","SEMIMAJOR_AXIS":"6925.294","EPHEMERIS_TYPE":"0","RA_OF_ASC_NODE":"269.3864","OBJECT_ID":"2021-038A","PERIOD":"95.591"},{"ECCENTRICITY":"0.00008880","CENTER_NAME":"EARTH","MEAN_MOTION":"15.06408188","PERIAPSIS":"546.573","ARG_OF_PERICENTER":"96.0747","SITE":"AFETR","GP_ID":"232356847","OBJECT_NAME":"STARLINK-2674","MEAN_MOTION_DDOT":"0.0000000000000","RCS_SIZE":"LARGE","MEAN_ANOMALY":"264.0343","REF_FRAME":"TEME","MEAN_ELEMENT_THEORY":"SGP4","CLASSIFICATION_TYPE":"U","OBJECT_TYPE":"PAYLOAD","COUNTRY_CODE":"US","MEAN_MOTION_DOT":"0.00030119","PERIOD":"95.592","RA_OF_ASC_NODE":"269.7012","OBJECT_ID":"2021-038B","EPHEMERIS_TYPE":"0","SEMIMAJOR_AXIS":"6925.323","BSTAR":"0.00203180000000","TIME_SYSTEM":"UTC","REV_AT_EPOCH":"11298","FILE":"3914964","EPOCH":"2023-05-22T15:46:16.539168","LAUNCH_DATE":"2021-05-04","ELEMENT_SET_NO":"999","DECAY_DATE":null,"APOAPSIS":"547.803","TLE_LINE2":"2 48354  53.0544 269.7012 0000888  96.0747 264.0343 15.06408188112985","TLE_LINE1":"1 48354U 21038B   23142.65713587  .00030119  00000-0  20318-2 0  9992","INCLINATION":"53.0544","NORAD_CAT_ID":"48354"},{"DECAY_DATE":null,"APOAPSIS":"547.714","ELEMENT_SET_NO":"999","LAUNCH_DATE":"2021-05-04","INCLINATION":"53.0549","NORAD_CAT_ID":"48355","TLE_LINE2":"2 48355  53.0549 269.7141 0000943  75.9240 284.1854 15.06449811112988","TLE_LINE1":"1 48355U 21038C   23142.65345367  .00061195  00000-0  40862-2 0  9994","BSTAR":"0.00408620000000","TIME_SYSTEM":"UTC","EPOCH":"2023-05-22T15:40:58.397088","FILE":"3914964","REV_AT_EPOCH":"11298","CLASSIFICATION_TYPE":"U","OBJECT_TYPE":"PAYLOAD","COUNTRY_CODE":"US","MEAN_MOTION_DOT":"0.00061195","MEAN_ELEMENT_THEORY":"SGP4","REF_FRAME":"TEME","SEMIMAJOR_AXIS":"6925.196","EPHEMERIS_TYPE":"0","RA_OF_ASC_NODE":"269.7141","OBJECT_ID":"2021-038C","PERIOD":"95.589","MEAN_MOTION":"15.06449811","PERIAPSIS":"546.408","CENTER_NAME":"EARTH","ECCENTRICITY":"0.00009430","MEAN_MOTION_DDOT":"0.0000000000000","OBJECT_NAME":"STARLINK-2635","MEAN_ANOMALY":"284.1854","RCS_SIZE":"LARGE","GP_ID":"232357097","SITE":"AFETR","ARG_OF_PERICENTER":"75.9240"},{"EPHEMERIS_TYPE":"0","SEMIMAJOR_AXIS":"6925.363","PERIOD":"95.592","RA_OF_ASC_NODE":"269.7357","OBJECT_ID":"2021-038D","MEAN_ELEMENT_THEORY":"SGP4","OBJECT_TYPE":"PAYLOAD","CLASSIFICATION_TYPE":"U","COUNTRY_CODE":"US","MEAN_MOTION_DOT":"0.00022254","REF_FRAME":"TEME","GP_ID":"232357348","MEAN_MOTION_DDOT":"0.0000000000000","OBJECT_NAME":"STARLINK-2637","RCS_SIZE":"LARGE","MEAN_ANOMALY":"258.0365","ARG_OF_PERICENTER":"102.0727","SITE":"AFETR","CENTER_NAME":"EARTH","MEAN_MOTION":"15.06395162","PERIAPSIS":"546.595","ECCENTRICITY":"0.00009140","TLE_LINE1":"1 48356U 21038D   23142.64976596  .00022254  00000-0  15084-2 0  9999","TLE_LINE2":"2 48356  53.0534 269.7357 0000914 102.0727 258.0365 15.06395162112988","INCLINATION":"53.0534","NORAD_CAT_ID":"48356","DECAY_DATE":null,"APOAPSIS":"547.861","LAUNCH_DATE":"2021-05-04","ELEMENT_SET_NO":"999","EPOCH":"2023-05-22T15:35:39.778944","REV_AT_EPOCH":"11298","FILE":"3914964","BSTAR":"0.00150840000000","TIME_SYSTEM":"UTC"},{"MEAN_MOTION":"15.06394197","PERIAPSIS":"546.576","CENTER_NAME":"EARTH","ECCENTRICITY":"0.00009470","OBJECT_NAME":"STARLINK-2636","MEAN_MOTION_DDOT":"0.0000000000000","MEAN_ANOMALY":"260.4142","RCS_SIZE":"LARGE","GP_ID":"232358084","SITE":"AFETR","ARG_OF_PERICENTER":"99.6954","OBJECT_TYPE":"PAYLOAD","CLASSIFICATION_TYPE":"U","COUNTRY_CODE":"US","MEAN_MOTION_DOT":"0.00027631","MEAN_ELEMENT_THEORY":"SGP4","REF_FRAME":"TEME","SEMIMAJOR_AXIS":"6925.366","EPHEMERIS_TYPE":"0","OBJECT_ID":"2021-038E","RA_OF_ASC_NODE":"269.7642","PERIOD":"95.593","BSTAR":"0.00186690000000","TIME_SYSTEM":"UTC","EPOCH":"2023-05-22T15:34:19.344000","FILE":"3914964","REV_AT_EPOCH":"11298","DECAY_DATE":null,"APOAPSIS":"547.887","ELEMENT_SET_NO":"999","LAUNCH_DATE":"2021-05-04","INCLINATION":"53.0539","NORAD_CAT_ID":"48357","TLE_LINE1":"1 48357U 21038E   23142.64883500  .00027631  00000-0  18669-2 0  9998","TLE_LINE2":"2 48357  53.0539 269.7642 0000947  99.6954 260.4142 15.06394197112987"}];
